{
  "type": "FeatureCollection",
  "features": [
    {
      "type": "Feature",
      "properties": {
        "norad_id": 30050,
        "name": "FENGYUN 1C DEB",
        "group": "fengyun-1c-debris",
        "lat": 65.33379460029745,
        "lon": -58.169922007562434,
        "alt_km": 905.3014894734988,
        "timestamp": "2025-12-26T11:25:45.468170+00:00",
        "meta_object_name": "FENGYUN 1C DEB",
        "meta_object_id": "1999-025PB",
        "meta_epoch": "2025-12-25T19:48:12.389760",
        "meta_mean_motion": 13.85088382,
        "meta_eccentricity": 0.01709486,
        "meta_inclination": 96.8194,
        "meta_ra_of_asc_node": 316.4593,
        "meta_arg_of_pericenter": 353.0578,
        "meta_mean_anomaly": 66.7155,
        "meta_ephemeris_type": 0,
        "meta_classification_type": "U",
        "meta_norad_cat_id": 30050,
        "meta_element_set_no": 999,
        "meta_rev_at_epoch": 95383,
        "meta_bstar": 0.0012822155,
        "meta_mean_motion_dot": 1.6e-05,
        "meta_mean_motion_ddot": 0,
        "tle_line1": "1 30050U 99025PB  25359.82514340  .00001600  00000+0  12822-2 0  9997",
        "tle_line2": "2 30050  96.8194 316.4593 0170948 353.0578  66.7155 13.85088382953832"
      },
      "geometry": {
        "type": "Point",
        "coordinates": [
          -58.169922007562434,
          65.33379460029745
        ]
      }
    },
    {
      "type": "Feature",
      "properties": {
        "norad_id": 30052,
        "name": "FENGYUN 1C DEB",
        "group": "fengyun-1c-debris",
        "lat": 74.40724084281304,
        "lon": -118.35908803314379,
        "alt_km": 989.3927209907597,
        "timestamp": "2025-12-26T11:25:45.468179+00:00",
        "meta_object_name": "FENGYUN 1C DEB",
        "meta_object_id": "1999-025PD",
        "meta_epoch": "2025-12-26T00:41:45.847104",
        "meta_mean_motion": 13.72975562,
        "meta_eccentricity": 0.0289413,
        "meta_inclination": 99.2982,
        "meta_ra_of_asc_node": 25.259,
        "meta_arg_of_pericenter": 197.4239,
        "meta_mean_anomaly": 219.1376,
        "meta_ephemeris_type": 0,
        "meta_classification_type": "U",
        "meta_norad_cat_id": 30052,
        "meta_element_set_no": 999,
        "meta_rev_at_epoch": 94737,
        "meta_bstar": 0.00043621,
        "meta_mean_motion_dot": 5e-06,
        "meta_mean_motion_ddot": 0,
        "tle_line1": "1 30052U 99025PD  25360.02900286  .00000500  00000+0  43621-3 0  9991",
        "tle_line2": "2 30052  99.2982  25.2590 0289413 197.4239 219.1376 13.72975562947372"
      },
      "geometry": {
        "type": "Point",
        "coordinates": [
          -118.35908803314379,
          74.40724084281304
        ]
      }
    },
    {
      "type": "Feature",
      "properties": {
        "norad_id": 30053,
        "name": "FENGYUN 1C DEB",
        "group": "fengyun-1c-debris",
        "lat": -81.09458383862162,
        "lon": -81.73763141734213,
        "alt_km": 715.3294494118018,
        "timestamp": "2025-12-26T11:25:45.468189+00:00",
        "meta_object_name": "FENGYUN 1C DEB",
        "meta_object_id": "1999-025PE",
        "meta_epoch": "2025-12-25T22:49:53.069952",
        "meta_mean_motion": 13.94218479,
        "meta_eccentricity": 0.0331486,
        "meta_inclination": 98.576,
        "meta_ra_of_asc_node": 172.1478,
        "meta_arg_of_pericenter": 301.6853,
        "meta_mean_anomaly": 214.7477,
        "meta_ephemeris_type": 0,
        "meta_classification_type": "U",
        "meta_norad_cat_id": 30053,
        "meta_element_set_no": 999,
        "meta_rev_at_epoch": 95170,
        "meta_bstar": 0.0018082,
        "meta_mean_motion_dot": 3.747e-05,
        "meta_mean_motion_ddot": 0,
        "tle_line1": "1 30053U 99025PE  25359.95130868  .00003747  00000+0  18082-2 0  9991",
        "tle_line2": "2 30053  98.5760 172.1478 0331486 301.6853 214.7477 13.94218479951701"
      },
      "geometry": {
        "type": "Point",
        "coordinates": [
          -81.73763141734213,
          -81.09458383862162
        ]
      }
    },
    {
      "type": "Feature",
      "properties": {
        "norad_id": 30054,
        "name": "FENGYUN 1C DEB",
        "group": "fengyun-1c-debris",
        "lat": -63.662548715059586,
        "lon": -167.12009062667337,
        "alt_km": 981.4321847355804,
        "timestamp": "2025-12-26T11:25:45.468198+00:00",
        "meta_object_name": "FENGYUN 1C DEB",
        "meta_object_id": "1999-025PF",
        "meta_epoch": "2025-12-26T01:42:45.699264",
        "meta_mean_motion": 13.69880076,
        "meta_eccentricity": 0.0275295,
        "meta_inclination": 99.3702,
        "meta_ra_of_asc_node": 31.9689,
        "meta_arg_of_pericenter": 330.573,
        "meta_mean_anomaly": 82.2478,
        "meta_ephemeris_type": 0,
        "meta_classification_type": "U",
        "meta_norad_cat_id": 30054,
        "meta_element_set_no": 999,
        "meta_rev_at_epoch": 94531,
        "meta_bstar": 0.00046567,
        "meta_mean_motion_dot": 4.88e-06,
        "meta_mean_motion_ddot": 0,
        "tle_line1": "1 30054U 99025PF  25360.07136226  .00000488  00000+0  46567-3 0  9990",
        "tle_line2": "2 30054  99.3702  31.9689 0275295 330.5730  82.2478 13.69880076945312"
      },
      "geometry": {
        "type": "Point",
        "coordinates": [
          -167.12009062667337,
          -63.662548715059586
        ]
      }
    },
    {
      "type": "Feature",
      "properties": {
        "norad_id": 30056,
        "name": "FENGYUN 1C DEB",
        "group": "fengyun-1c-debris",
        "lat": 32.414681907140086,
        "lon": 179.04641737147742,
        "alt_km": 1151.034183695483,
        "timestamp": "2025-12-26T11:25:45.468207+00:00",
        "meta_object_name": "FENGYUN 1C DEB",
        "meta_object_id": "1999-025PH",
        "meta_epoch": "2025-12-25T12:32:30.651072",
        "meta_mean_motion": 13.74061904,
        "meta_eccentricity": 0.0299039,
        "meta_inclination": 98.3229,
        "meta_ra_of_asc_node": 183.5474,
        "meta_arg_of_pericenter": 176.2965,
        "meta_mean_anomaly": 184.0501,
        "meta_ephemeris_type": 0,
        "meta_classification_type": "U",
        "meta_norad_cat_id": 30056,
        "meta_element_set_no": 999,
        "meta_rev_at_epoch": 94151,
        "meta_bstar": 0.0025009,
        "meta_mean_motion_dot": 3.213e-05,
        "meta_mean_motion_ddot": 0,
        "tle_line1": "1 30056U 99025PH  25359.52257698  .00003213  00000+0  25009-2 0  9993",
        "tle_line2": "2 30056  98.3229 183.5474 0299039 176.2965 184.0501 13.74061904941513"
      },
      "geometry": {
        "type": "Point",
        "coordinates": [
          179.04641737147742,
          32.414681907140086
        ]
      }
    },
    {
      "type": "Feature",
      "properties": {
        "norad_id": 30057,
        "name": "FENGYUN 1C DEB",
        "group": "fengyun-1c-debris",
        "lat": 42.46043788444669,
        "lon": 59.67500310467225,
        "alt_km": 955.7861363466718,
        "timestamp": "2025-12-26T11:25:45.468215+00:00",
        "meta_object_name": "FENGYUN 1C DEB",
        "meta_object_id": "1999-025PJ",
        "meta_epoch": "2025-12-25T10:47:21.082848",
        "meta_mean_motion": 13.57152056,
        "meta_eccentricity": 0.0291741,
        "meta_inclination": 98.8824,
        "meta_ra_of_asc_node": 66.9733,
        "meta_arg_of_pericenter": 113.782,
        "meta_mean_anomaly": 319.0616,
        "meta_ephemeris_type": 0,
        "meta_classification_type": "U",
        "meta_norad_cat_id": 30057,
        "meta_element_set_no": 999,
        "meta_rev_at_epoch": 93408,
        "meta_bstar": 0.0012196,
        "meta_mean_motion_dot": 1.11e-05,
        "meta_mean_motion_ddot": 0,
        "tle_line1": "1 30057U 99025PJ  25359.44954957  .00001110  00000+0  12196-2 0  9994",
        "tle_line2": "2 30057  98.8824  66.9733 0291741 113.7820 319.0616 13.57152056934081"
      },
      "geometry": {
        "type": "Point",
        "coordinates": [
          59.67500310467225,
          42.46043788444669
        ]
      }
    },
    {
      "type": "Feature",
      "properties": {
        "norad_id": 30058,
        "name": "FENGYUN 1C DEB",
        "group": "fengyun-1c-debris",
        "lat": 29.648463067387294,
        "lon": -1.2851644008676337,
        "alt_km": 1061.6997644695812,
        "timestamp": "2025-12-26T11:25:45.468225+00:00",
        "meta_object_name": "FENGYUN 1C DEB",
        "meta_object_id": "1999-025PK",
        "meta_epoch": "2025-12-25T22:58:24.150144",
        "meta_mean_motion": 13.48253074,
        "meta_eccentricity": 0.0315758,
        "meta_inclination": 99.6499,
        "meta_ra_of_asc_node": 3.7701,
        "meta_arg_of_pericenter": 119.5682,
        "meta_mean_anomaly": 276.4839,
        "meta_ephemeris_type": 0,
        "meta_classification_type": "U",
        "meta_norad_cat_id": 30058,
        "meta_element_set_no": 999,
        "meta_rev_at_epoch": 93026,
        "meta_bstar": 0.00070421,
        "meta_mean_motion_dot": 5.51e-06,
        "meta_mean_motion_ddot": 0,
        "tle_line1": "1 30058U 99025PK  25359.95722396  .00000551  00000+0  70421-3 0  9995",
        "tle_line2": "2 30058  99.6499   3.7701 0315758 119.5682 276.4839 13.48253074930269"
      },
      "geometry": {
        "type": "Point",
        "coordinates": [
          -1.2851644008676337,
          29.648463067387294
        ]
      }
    }
  ]
}